satname,norad_id,inclination_deg,eccentricity,mean_motion_rev_per_day,perigee_km,apogee_km,l1,l2
STARLINK-1143,45179,53.0482,0.0007274,15.61641328,377.99756982967847,387.83354909318314,1 45179U 20012B   26063.91668981  .00117504  00000+0  13253-2 0  9999,2 45179  53.0482 353.2362 0007274  82.6143  34.9260 15.61641328  5835
STARLINK-1202,45183,53.1617,0.0001196,15.30190215,474.4246214194709,476.0639502230406,1 45183U 20012F   26063.26738582  .00000476  00000+0  28218-4 0  9995,2 45183  53.1617  64.4343 0001196  96.0631 264.0506 15.30190215334125
STARLINK-1216,45185,53.1599,0.0001485,15.30189465,474.2287977573542,476.26425266434217,1 45185U 20012H   26063.71510388  .00000435  00000+0  26835-4 0  9997,2 45185  53.1599  62.3359 0001485  91.1186 268.9984 15.30189465334131
STARLINK-1225,45187,53.1612,0.0001553,15.30181399,474.2062750133764,476.33494341679943,1 45187U 20012K   26063.71202456 -.00002222  00000+0 -62947-4 0  9995,2 45187  53.1612  62.7923 0001553  98.8667 261.2510 15.30181399334177
STARLINK-1230,45189,53.1618,0.0001322,15.30187646,474.34593846462485,476.1579745047193,1 45189U 20012M   26063.72149564 -.00003372  00000+0 -10179-3 0  9994,2 45189  53.1618  62.8079 0001322  86.7869 273.3283 15.30187646331407
STARLINK-1234,45190,53.0452,0.000335,15.61044585,382.3729588007118,386.9040183780671,1 45190U 20012N   26063.91668981  .00100536  00000+0  11646-2 0  9993,2 45190  53.0452 348.6136 0003350 306.7838  56.9864 15.61044585  5920
STARLINK-1269,45197,53.1611,0.0001539,15.30189702,474.19108194791534,476.3005531791605,1 45197U 20012V   26063.71831911  .00007766  00000+0  27415-3 0  9996,2 45197  53.1611  62.6795 0001539  87.1345 272.9832 15.30189702334151
STARLINK-1154,45198,53.0502,0.000713,15.4496535,426.6246293727145,436.3351430524526,1 45198U 20012W   26063.18938342  .00117511  00000+0  24259-2 0  9996,2 45198  53.0502  36.2204 0007130  65.5306 294.6443 15.44965350334449
STARLINK-1199,45201,53.1581,0.000189,15.29376889,476.3780844467683,478.96958094152706,1 45201U 20012Z   26063.35801812  .00004299  00000+0  16113-3 0  9990,2 45201  53.1581  48.5677 0001890  94.8614 265.2602 15.29376889334342
STARLINK-1209,45206,53.0483,0.0005982,15.49888432,412.9872665340963,421.11703083158045,1 45206U 20012AE  26063.19595378  .00124202  00000+0  21600-2 0  9997,2 45206  53.0483 359.8255 0005982 263.5644  96.4683 15.49888432334067
STARLINK-1231,45212,53.0519,0.0004297,15.20494259,501.39130341727923,507.30611163432604,1 45212U 20012AL  26063.22545863  .00066962  00000+0  30127-2 0  9994,2 45212  53.0519  40.8741 0004297  58.5517 301.5898 15.20494259334393
STARLINK-1271,45217,53.1602,0.0001453,15.30011479,474.782143088677,476.77389079260047,1 45217U 20012AR  26063.62024050  .00079002  00000+0  26667-2 0  9996,2 45217  53.1602  47.5069 0001453  96.7519 263.3647 15.30011479334382
STARLINK-1191,45222,53.1595,0.0001265,15.30195598,474.36126232991865,476.09516372881444,1 45222U 20012AW  26063.18303374  .00001447  00000+0  60974-4 0  9991,2 45222  53.1595  24.4010 0001265  84.1578 275.9567 15.30195598334673
STARLINK-1212,45223,53.0506,0.0005966,15.50952755,409.89089255982617,417.9952024725226,1 45223U 20012AX  26063.82674580  .00114364  00000+0  19184-2 0  9991,2 45223  53.0506  13.4777 0005966  91.0449 269.1243 15.50952755334886
STARLINK-1215,45225,53.1604,0.0001198,15.30198428,474.39873099176475,476.04079527221074,1 45225U 20012AZ  26063.29988917  .00003503  00000+0  13036-3 0  9999,2 45225  53.1604  23.3388 0001198  57.5235 302.5882 15.30198428334652
STARLINK-1221,45227,53.0651,0.000301,15.41707382,439.01741160007623,443.12257420980586,1 45227U 20012BB  26063.66101924  .00022129  00000+0  52424-3 0  9996,2 45227  53.0651 293.4415 0003010  40.5998 319.5231 15.41707382335934
STARLINK-1222,45228,53.0583,0.0003947,15.4917574,416.45317133804383,421.8189386876711,1 45228U 20012BC  26063.84733190  .00034254  00000+0  62399-3 0  9997,2 45228  53.0583   6.0206 0003947  72.0089 288.1348 15.49175740334872
STARLINK-1226,45229,53.1612,0.000159,15.30193881,474.14365382723645,476.3230255952649,1 45229U 20012BD  26063.26412405 -.00001069  00000+0 -23983-4 0  9994,2 45229  53.1612  23.8170 0001590 110.0529 250.0643 15.30193881334588
STARLINK-1227,45230,53.1623,0.0001391,15.31036824,471.7646480473277,473.6705557975811,1 45230U 20012BE  26063.15805796  .00001387  00000+0  57553-4 0  9994,2 45230  53.1623  24.5922 0001391  84.7441 275.3719 15.31036824334683
STARLINK-1246,45235,53.1599,0.000137,15.30200506,474.2746495684196,476.1524676214749,1 45235U 20012BK  26063.27053286  .00000630  00000+0  33394-4 0  9998,2 45235  53.1599  64.4231 0001370  95.2803 264.8355 15.30200506334141
STARLINK-1270,45237,53.0513,0.0004221,15.45904164,425.8494846743606,431.5958355994471,1 45237U 20012BM  26063.15384716  .00106327  00000+0  21307-2 0  9991,2 45237  53.0513  13.9798 0004221  65.0365 295.1079 15.45904164334812
STARLINK-1279,45360,53.0428,8.73e-05,15.56414818,397.45148330645316,398.63460434210447,1 45360U 20019A   26063.56127855  .00085951  00000+0  11891-2 0  9995,2 45360  53.0428 123.5518 0000873 137.6462 222.4616 15.56414818329879
STARLINK-1301,45361,53.0418,0.0001768,15.64040027,374.8069082086067,377.1951714194847,1 45361U 20019B   26063.91668981  .00133963  00000+0  13738-2 0  9994,2 45361  53.0418 127.4852 0001768 186.8964  80.2524 15.64040027  5875
STARLINK-1262,45366,53.1298,0.0001781,15.2360802,493.7443637901506,496.1925639563824,1 45366U 20019G   26063.91668981  .00831350  00000+0  31978-1 0  9999,2 45366  53.1298 187.1577 0001781  79.5063  59.7458 15.23608020  5782
STARLINK-1273,45367,53.0513,0.0001308,15.43553705,434.7398007809534,436.5222825006458,1 45367U 20019H   26063.74414248  .00043463  00000+0  95675-3 0  9992,2 45367  53.0513 178.3267 0001308 336.0613  24.0331 15.43553705329131
STARLINK-1276,45368,53.0561,0.0001007,15.06405914,546.4960516648034,547.8908132138959,1 45368U 20019J   26063.70865028  .00000326  00000+0  40766-4 0  9998,2 45368  53.0561 188.9771 0001007 110.9003 249.2094 15.06405914328986
STARLINK-1277,45369,53.0531,0.0002861,15.47852776,421.0628235777958,424.9544391080508,1 45369U 20019K   26063.72416390  .00081876  00000+0  15410-2 0  9990,2 45369  53.0531 176.3802 0002861 356.7030   3.3957 15.47852776329164
STARLINK-1281,45370,53.131,0.0001705,15.23730186,493.429286829235,495.77289051747357,1 45370U 20019L   26063.91668981  .01417770  00000+0  53446-1 0  9995,2 45370  53.1310 187.3558 0001705  97.4906  32.2947 15.23730186  5849
STARLINK-1300,45374,53.1386,0.000175,15.25811398,487.14840621750955,489.5516766820183,1 45374U 20019Q   26063.91668981  .01602873  00000+0  56154-1 0  9998,2 45374  53.1386 187.3594 0001750  79.8369 288.3035 15.25811398  5774
STARLINK-1302,45375,53.0533,0.0004602,15.49200535,415.93545610010005,422.19159946587206,1 45375U 20019R   26063.74937360  .00121057  00000+0  21585-2 0  9990,2 45375  53.0533 175.5582 0004602 208.5468 151.5288 15.49200535329179
STARLINK-1304,45376,53.0512,0.0002076,15.47295902,423.2281048982877,426.0526180587731,1 45376U 20019S   26063.73795965  .00104337  00000+0  19940-2 0  9997,2 45376  53.0512 173.1805 0002076 277.3247  82.7523 15.47295902329202
STARLINK-1305,45377,53.0452,0.0002865,15.51890842,409.26050724861307,413.15080058930926,1 45377U 20019T   26063.62439453  .00102119  00000+0  16607-2 0  9996,2 45377  53.0452 156.6598 0002865 107.7529 252.3792 15.51890842329433
STARLINK-1319,45379,53.0447,0.0001791,15.64674556,372.96555479563995,375.38423291601885,1 45379U 20019V   26063.91668981 -.00052067  00000+0 -52494-3 0  9993,2 45379  53.0447 153.1362 0001791  60.2318 141.0777 15.64674556  5980
STARLINK-1266,45383,53.0503,0.0003344,15.44534962,430.4672782101334,435.02239598278356,1 45383U 20019Z   26063.66673610  .00126903  00000+0  26561-2 0  9999,2 45383  53.0503 156.8865 0003344 354.3683 303.6654 15.44534962  5911
STARLINK-1267,45384,53.0512,0.0003685,15.48698442,418.0272548130788,423.03787428214946,1 45384U 20019AA  26063.65246153  .00105123  00000+0  19129-2 0  9990,2 45384  53.0512 151.1494 0003685 235.7401 124.3257 15.48698442329505
STARLINK-1272,45386,53.0449,0.000186,15.55221917,400.2466068480444,402.7686346469636,1 45386U 20019AC  26063.46498737  .00142203  00000+0  20367-2 0  9994,2 45386  53.0449 135.0798 0001860 121.0450 239.0743 15.55221917329712
STARLINK-1274,45387,53.0279,0.0004477,15.46080805,425.15699178033265,431.25138968251395,1 45387U 20019AD  26063.55241008  .00065759  00000+0  13199-2 0  9997,2 45387  53.0279 127.4706 0004477 217.9187 142.1505 15.46080805329828
STARLINK-1280,45388,53.0437,0.000114,15.64813304,373.0060297345808,374.5454658410763,1 45388U 20019AE  26063.47856459  .00076527  00000+0  76890-3 0  9994,2 45388  53.0437 148.0711 0001140 101.4743 258.6399 15.64813304329528
STARLINK-1283,45389,53.044,0.000422,15.55255183,398.5499760774692,404.27191454331023,1 45389U 20019AF  26063.91668981  .00113553  00000+0  16313-2 0  9999,2 45389  53.0440 133.1005 0004220 221.7734 217.8484 15.55255183  5698
STARLINK-1284,45390,53.0502,0.0002363,15.50764757,412.8868705723662,416.0970670230199,1 45390U 20019AG  26063.65312708  .00096255  00000+0  16312-2 0  9993,2 45390  53.0502 155.2011 0002363 353.9770   6.1209 15.50764757329448
STARLINK-1297,45395,53.0485,0.0003607,15.53031566,405.4329504001935,410.3283835451475,1 45395U 20019AM  26063.73592593  .00106868  00000+0  16667-2 0  9994,2 45395  53.0485 154.6008 0003607   0.5073 359.5939 15.53031566328649
STARLINK-1307,45397,53.0559,0.0001577,15.49720581,416.4711213122646,418.6144787211897,1 45397U 20019AP  26063.65299919  .00034837  00000+0  62252-3 0  9991,2 45397  53.0559 154.9054 0001577  37.5341 322.5777 15.49720581329276
STARLINK-1255,45399,53.0418,0.0001832,15.50768711,413.2360151555795,415.72483017924424,1 45399U 20019AR  26063.47062300  .00112587  00000+0  19025-2 0  9993,2 45399  53.0418 127.8386 0001832 283.6760  76.4044 15.50768711329622
